1 33412U 08054A   18046.23266439  .00000163  00000-0  27022-4 0  9991
2 33412  97.8885 231.4748 0001484  87.3012 272.8350 14.82156108503659
1 33412U 08054A   18046.36768575  .00000067  00000-0  15035-4 0  9997
2 33412  97.8883 231.6080 0001505  87.9368 272.1996 14.82155632503674
1 33412U 08054A   18046.50270715 +.00000042 +00000-0 +11856-4 0  9997
2 33412 097.8883 231.7411 0001522 087.5177 272.6212 14.82155617503697
1 33412U 08054A   18046.84025965 -.00000050  00000-0  23816-6 0  9990
2 33412  97.8884 232.0739 0001526  86.0942 274.0438 14.82155316503741
1 33412U 08054A   18047.17781253 -.00000240  00000-0 -23583-4 0  9997
2 33412  97.8882 232.4065 0001511  87.7360 272.3989 14.82154151503794
1 33412U 08054A   18047.51536606 -.00000259  00000-0 -25942-4 0  9996
2 33412  97.8882 232.7396 0001489  87.9727 272.1677 14.82154131503843
1 33412U 08054A   18047.85291855 -.00000269  00000-0 -27293-4 0  9999
2 33412  97.8882 233.0725 0001513  87.7245 272.4146 14.82154000503898
1 33412U 08054A   18048.52802429 -.00000179  00000-0 -15898-4 0  9997
2 33412  97.8880 233.7387 0001468  90.6130 269.5290 14.82154232503997
1 33412U 08054A   18048.79806570 -.00000141  00000-0 -11207-4 0  9996
2 33412  97.8879 234.0048 0001462  89.8104 270.3283 14.82154404504037
1 33412U 08054A   18049.54068076  .00000203  00000-0  32062-4 0  9990
2 33412  97.8881 234.7371 0001476  90.7110 269.4303 14.82156151504144
1 33412U 08054A   18049.81072198  .00000232  00000-0  35672-4 0  9992
2 33412  97.8879 235.0032 0001469  90.7194 269.4191 14.82156460504185
1 33412U 08054A   18050.55333679 +.00000364 +00000-0 +52277-4 0  9995
2 33412 097.8882 235.7354 0001438 089.3892 270.7499 14.82157451504297
1 33412U 08054A   18050.82337820 +.00000355 +00000-0 +51199-4 0  9999
2 33412 097.8881 236.0017 0001439 088.0328 272.1051 14.82157680504336
1 33412U 08054A   18051.16093038  .00000225  00000-0  34853-4 0  9991
2 33412  97.8884 236.3347 0001432  89.3603 270.7745 14.82157048504388
1 33412U 08054A   18051.83603550  .00000111  00000-0  20489-4 0  9995
2 33412  97.8885 237.0003 0001474  89.6489 270.4892 14.82156874504484
1 33412U 08054A   18052.17358828 -.00000119  00000-0 -83581-5 0  9991
2 33412  97.8886 237.3333 0001390  87.3897 272.7439 14.82155529504533
1 33412U 08054A   18052.51114159 -.00000224  00000-0 -21612-4 0  9999
2 33412  97.8886 237.6659 0001402  88.4930 271.6450 14.82155120504584
1 33412U 08054A   18052.84869407 -.00000268 +00000-0 -27168-4 0  9998
2 33412 097.8887 237.9987 0001404 088.7353 271.4024 14.82154879504637
1 33412U 08054A   18053.18624682 -.00000339  00000-0 -36049-4 0  9997
2 33412  97.8891 238.3320 0001388  89.0960 271.0395 14.82154205504682
1 33412U 08054A   18053.38877884 -.00000305  00000-0 -31797-4 0  9991
2 33412  97.8894 238.5317 0001381  88.7664 271.3717 14.82154278504718
1 33412U 08054A   18053.52379978 -.00000263 +00000-0 -26487-4 0  9991
2 33412 097.8894 238.6653 0001352 090.6907 269.4496 14.82154625504732
1 33412U 08054A   18053.86135174 -.00000226 +00000-0 -21833-4 0  9995
2 33412 097.8894 238.9981 0001367 090.8362 269.3019 14.82154772504780
1 33412U 08054A   18054.53645601  .00000116  00000-0  21169-4 0  9999
2 33412  97.8897 239.6644 0001334  93.3923 266.7483 14.82156409504888
1 33412U 08054A   18054.80649680  .00000193  00000-0  30762-4 0  9994
2 33412  97.8897 239.9307 0001334  95.2040 264.9327 14.82156874504926
1 33412U 08054A   18055.14404887  .00000229  00000-0  35369-4 0  9998
2 33412  97.8898 240.2635 0001359  95.1354 264.9999 14.82157034504979
1 33412U 08054A   18055.48160094  .00000371  00000-0  53146-4 0  9995
2 33412  97.8898 240.5963 0001359  95.2244 264.9136 14.82157978505022
1 33412U 08054A   18055.88666288  .00000392  00000-0  55795-4 0  9990
2 33412  97.8898 240.9959 0001396  98.0328 262.1052 14.82158465505081
1 33412U 08054A   18056.15670440  .00000260  00000-0  39166-4 0  9994
2 33412  97.8898 241.2623 0001372  95.9779 264.1556 14.82157807505128
1 33412U 08054A   18056.56176758  .00000223  00000-0  34579-4 0  9994
2 33412  97.8898 241.6615 0001423  98.0439 262.0938 14.82157860505183
1 33412U 08054A   18056.83180914 +.00000167 +00000-0 +27527-4 0  9995
2 33412 097.8900 241.9278 0001422 096.6059 263.5310 14.82157767505227
1 33412U 08054A   18057.16936177 -.00000057  00000-0 -64765-6 0  9999
2 33412  97.8901 242.2609 0001405  95.3923 264.7415 14.82156545505274
1 33412U 08054A   18057.50691493 -.00000159  00000-0 -13352-4 0  9993
2 33412  97.8901 242.5937 0001414  96.4273 263.7112 14.82156182505327
1 33412U 08054A   18057.84446714 -.00000187  00000-0 -16931-4 0  9991
2 33412  97.8901 242.9265 0001442  96.8543 263.2841 14.82156061505375
1 33412U 08054A   18058.24953005 -.00000291  00000-0 -29977-4 0  9992
2 33412  97.8901 243.3258 0001445  97.2479 262.8874 14.82155252505437
1 33412U 08054A   18058.51957239 -.00000282 +00000-0 -28850-4 0  9994
2 33412 097.8901 243.5920 0001410 096.1974 263.9411 14.82155355505472
1 33412U 08054A   18058.85712476 -.00000298  00000-0 -30856-4 0  9999
2 33412  97.8899 243.9248 0001402  95.1151 265.0224 14.82155160505527
1 33412U 08054A   18059.19467738 -.00000215  00000-0 -20425-4 0  9995
2 33412  97.8901 244.2575 0001419  94.6776 265.4603 14.82155271505576
1 33412U 08054A   18059.53222956 -.00000028  00000-0  31012-5 0  9990
2 33412  97.8900 244.5906 0001361  88.9604 271.1804 14.82156411505628
1 33412U 08054A   18059.86978097  .00000050  00000-0  12900-4 0  9998
2 33412  97.8900 244.9234 0001371  88.7416 271.3971 14.82156919505671
1 33412U 08054A   18060.20733200  .00000471  00000-0  65710-4 0  9997
2 33412  97.8899 245.2562 0001423  87.6043 272.5388 14.82159388505722
1 33412U 08054A   18060.47737033 +.00001045 +00000-0 +13780-3 0  9991
2 33412 097.8899 245.5224 0001386 087.7860 272.3558 14.82162932505766
1 33412U 08054A   18060.67989995  .00001162  00000-0  15247-3 0  9999
2 33412  97.8898 245.7221 0001367  92.3554 267.7851 14.82163967505791
1 33412U 08054A   18060.88242961  .00001263  00000-0  16513-3 0  9996
2 33412  97.8900 245.9223 0001388  92.5079 267.6316 14.82164996505828
